ONEWEB-0033             
1 45142U 20008M   24139.60115684  .00000134  00000+0  34717-3 0  9998
2 45142  87.8952 187.3030 0002341  94.7296 265.4098 13.10369876208734
ONEWEB-0035             
1 45143U 20008N   24139.55632603 -.00000602  00000+0 -17621-2 0  9994
2 45143  87.8966 187.2916 0002227  96.8721 263.2660 13.10375315208456
ONEWEB-0036             
1 45144U 20008P   24139.54636329 -.00000635  00000+0 -18566-2 0  9998
2 45144  87.8958 187.2515 0001904  95.9237 264.2108 13.10373719208887
ONEWEB-0038             
1 45145U 20008Q   24139.54597664  .00000606  00000+0  16753-2 0  9999
2 45145  87.8972 172.1861 0002089 116.4655 243.6688 13.11336657210764
ONEWEB-0039             
1 45146U 20008R   24139.60447038 -.00000057  00000+0 -19916-3 0  9993
2 45146  87.8957 187.2576 0001627 100.8609 259.2702 13.10371750208681
ONEWEB-0040             
1 45147U 20008S   24139.59783746  .00000258  00000+0  70331-3 0  9990
2 45147  87.8963 187.2583 0002083  98.9052 261.2311 13.10370930208388
ONEWEB-0043             
1 45149U 20008U   24139.59949896  .00000187  00000+0  50079-3 0  9990
2 45149  87.8957 187.2665 0001578 101.4100 258.7204 13.10371010208704
ONEWEB-0044             
1 45150U 20008V   24139.55134250 -.00000508  00000+0 -14927-2 0  9998
2 45150  87.8961 187.2714 0001742  97.1969 262.9356 13.10374858208992
